GLOBALSTAR M069         
1 31573U 07020C   26117.03823384 -.00000115  00000+0 -20379-3 0  9998
2 31573  52.0055  36.8950 0002369  46.0383 327.5937 12.23469809872549
GLOBALSTAR M072         
1 31574U 07020D   26117.07844515 -.00000094  00000+0 -13307-3 0  9991
2 31574  51.9926 236.3114 0001487 186.2668 344.5489 11.91657332868884
GLOBALSTAR M066         
1 32265U 07048C   26117.21270941 -.00000108  00000+0 -11592-3 0  9991
2 32265  51.9580 204.2466 0004298 292.0491  89.0003 12.30387834853951
GLOBALSTAR M079         
1 37188U 10054A   26117.16573669 -.00000099  00000+0  27766-4 0  9997
2 37188  52.0041 263.9869 0000562 134.8085  35.7687 12.62265149716105
GLOBALSTAR M074         
1 37189U 10054B   26116.87308110 -.00000105  00000+0 -62455-5 0  9996
2 37189  52.0015 264.1512 0000647 104.6529  55.1678 12.62267580716676
GLOBALSTAR M076         
1 37190U 10054C   26117.13935655 -.00000091  00000+0  69240-4 0  9999
2 37190  52.0031 263.5380 0000419 102.6726  68.5922 12.62272384716427
GLOBALSTAR M077         
1 37191U 10054D   26117.03803791 -.00000079  00000+0 -24236-4 0  9997
2 37191  51.9972 309.1210 0003312  83.2889  87.2591 11.67547496715161
GLOBALSTAR M075         
1 37192U 10054E   26117.23178689 -.00000080  00000+0  13184-3 0  9991
2 37192  51.9954 305.3413 0000823 101.2299  69.5400 12.62266183715502
GLOBALSTAR M073         
1 37193U 10054F   26116.75563179 -.00000110  00000+0 -36945-4 0  9996
2 37193  52.0058 220.8506 0000366 150.9676  14.0260 12.62266481717430
GLOBALSTAR M083         
1 37739U 11033A   26117.13407441 -.00000090  00000+0  76224-4 0  9992
2 37739  51.9836 167.9970 0000221 191.8918 195.2643 12.62262840686502
GLOBALSTAR M088         
1 37740U 11033B   26117.20436975 -.00000103  00000+0  60451-5 0  9997
2 37740  52.0213  74.0851 0000471  56.4293  48.2598 12.62263122682056
GLOBALSTAR M091         
1 37741U 11033C   26117.14567545 -.00000103  00000+0  69854-5 0  9995
2 37741  52.0018  37.3041 0000548  82.8712  56.4126 12.62262794682835
GLOBALSTAR M085         
1 37742U 11033D   26117.05499831 -.00000082  00000+0  12423-3 0  9992
2 37742  52.0146 348.8298 0000705 100.7388  46.4834 12.62262886683339
GLOBALSTAR M081         
1 37743U 11033E   26117.08255013 -.00000081  00000+0  12722-3 0  9999
2 37743  51.9983 351.2411 0000651  81.1581  70.6082 12.62263686683488
GLOBALSTAR M089         
1 37744U 11033F   26116.77480192 -.00000077  00000+0  14961-3 0  9995
2 37744  51.9937 306.3476 0000826  77.5027 295.5604 12.62265994684290
GLOBALSTAR M084         
1 38040U 11080A   26117.10552249 -.00000093  00000+0  62362-4 0  9995
2 38040  51.9992 172.7940 0000198  60.2087 316.3487 12.62266659662318
GLOBALSTAR M080         
1 38041U 11080B   26117.07520134 -.00000090  00000+0  77973-4 0  9991
2 38041  52.0042 174.5870 0000726 143.2414 225.2202 12.62268540662439
GLOBALSTAR M082         
1 38042U 11080C   26117.18752321 -.00000088  00000+0  89466-4 0  9996
2 38042  52.0049 129.7388 0000365 144.7791 304.4279 12.62269323663150
GLOBALSTAR M092         
1 38043U 11080D   26116.70305656 -.00000103  00000+0  59238-5 0  9992
2 38043  52.0084 221.6086 0000514 121.2924  44.7277 12.62266710661541
GLOBALSTAR M090         
1 38044U 11080E   26117.21226318 -.00000086  00000+0  97453-4 0  9997
2 38044  52.0101 123.6024 0000076  96.6801 344.1281 12.62268308663276
GLOBALSTAR M086         
1 38045U 11080F   26117.06721617 -.00000078  00000+0  14566-3 0  9997
2 38045  51.9872 124.0574 0000868 305.9406  92.9477 12.62285520663204
GLOBALSTAR M097         
1 39072U 13005A   26117.16773220 -.00000105  00000+0 -59588-5 0  9992
2 39072  52.0065  38.6378 0000443  77.0264 283.0653 12.62260065610467
GLOBALSTAR M093         
1 39073U 13005B   26117.14147833 -.00000097  00000+0  36198-4 0  9996
2 39073  52.0126  32.0478 0000328  84.1132 275.9772 12.62264615610412
GLOBALSTAR M094         
1 39074U 13005C   26116.90398363 -.00000076  00000+0  15308-3 0  9992
2 39074  51.9962 306.9425 0000652 113.9715 246.1220 12.62267888611999
GLOBALSTAR M096         
1 39075U 13005D   26116.99648345 -.00000085  00000+0  10318-3 0  9996
2 39075  52.0099 355.4206 0000654  95.0446 265.0496 12.62264361610922
GLOBALSTAR M078         
1 39076U 13005E   26117.20694744 -.00000107  00000+0 -19570-4 0  9992
2 39076  51.9870  78.8543 0001037 129.2195 230.8764 12.62266002609576
GLOBALSTAR M095         
1 39077U 13005F   26117.15457844 -.00000105  00000+0 -60537-5 0  9993
2 39077  52.0076  76.5467 0000364 129.3836 230.7063 12.62267334609426
GLOBALSTAR M087         
1 52888U 22064A   26117.00966344 -.00000103  00000+0  34078-5 0  9995
2 52888  51.9994 218.2610 0000581 154.6534 205.4361 12.62268376184672
